ENTRYSAT                
1 44429U 98067QP  20035.18471759  .00009044  00000-0  13798-3 0  9993
2 44429  51.6402 286.4775 0003098 171.6277 188.4766 15.55256064 33604
VCC C                   
1 44430U 98067QQ  20035.16564116  .00011530  00000-0  17089-3 0  9993
2 44430  51.6406 286.3559 0003129 181.3114 178.7870 15.55738069 32429
VCC B                   
1 44431U 98067QR  20034.12502513  .00008559  00000-0  13334-3 0  9998
2 44431  51.6409 292.1536 0003299 177.2170 182.8840 15.54755949 33370
DUCHIFAT-3              
1 44854U 19089C   20035.07479859  .00000367  00000-0  36232-4 0  9997
2 44854  36.9663 172.4402 0007848  42.9447 317.1904 14.98961606  8123
